OBJECT_NAME,OBJECT_ID,EPOCH,MEAN_MOTION,ECCENTRICITY,INCLINATION,RA_OF_ASC_NODE,ARG_OF_PERICENTER,MEAN_ANOMALY,EPHEMERIS_TYPE,CLASSIFICATION_TYPE,NORAD_CAT_ID,ELEMENT_SET_NO,REV_AT_EPOCH,BSTAR,MEAN_MOTION_DOT,MEAN_MOTION_DDOT
DUBAISAT-1,2009-041B,2026-07-02T06:47:57.023232,14.75149207,.001091,98.0071,316.3770,29.5315,330.6509,0,U,35682,999,90732,.15886895E-3,.1022E-4,0
OCEANSAT-2,2009-051A,2026-07-02T06:47:38.575104,13.99659374,.00164447,98.2318,168.6278,191.0858,168.9949,0,U,35931,999,88144,-.1250767E-3,-.221E-5,0
WORLDVIEW-2 (WV-2),2009-055A,2026-07-02T06:20:05.601408,14.37903885,.00046653,98.4762,256.5075,162.5347,197.6001,0,U,35946,999,87781,.66007446E-4,.156E-5,0
SMOS,2009-059A,2026-07-02T03:08:42.358848,14.39780683,.00013101,98.4425,10.2470,87.5229,272.6109,0,U,36036,999,87560,.96221924E-4,.258E-5,0
YAOGAN-7,2009-069A,2026-07-02T06:04:52.164192,14.78025286,.00244735,98.0052,69.0262,354.1291,5.9629,0,U,36110,999,89185,.85963782E-4,.57E-5,0
TANDEM-X,2010-030A,2026-07-01T14:48:18.164160,15.19152803,.00017924,97.4457,190.1177,96.8129,263.3310,0,U,36605,999,88883,.31705549E-4,.599E-5,0
CARTOSAT-2B,2010-035A,2026-07-02T07:04:25.369248,14.78602414,.00120197,97.9945,233.7480,136.4844,223.7317,0,U,36795,999,86208,.91661852E-4,.619E-5,0
YAOGAN-10,2010-038A,2026-07-02T07:37:28.479936,14.85396895,.0001749,97.8966,206.6013,86.7145,36.4579,0,U,36834,999,85945,.2812329E-3,.2368E-4,0
COSMO-SKYMED 4,2010-060A,2026-07-02T07:06:20.183616,14.82157134,.00014846,97.8884,6.6763,84.3354,275.8028,0,U,37216,999,84680,.30007957E-4,.187E-5,0
RESOURCESAT-2,2011-015A,2026-07-02T07:00:03.675744,14.21603574,.00108145,98.7638,250.6288,208.3539,151.7051,0,U,37387,999,78832,.72861714E-4,.116E-5,0
HAIYANG-2A,2011-043A,2026-07-01T05:39:57.502080,13.73990655,.0004752,99.3390,184.5963,61.7209,298.4419,0,U,37781,999,74858,.21773E-3,.161E-5,0
RASAT,2011-044D,2026-07-02T07:18:02.858400,14.68181168,.00213504,98.0586,274.4704,141.3885,263.3764,0,U,37791,999,79540,.10886985E-3,.579E-5,0
SRMSAT,2011-058D,2026-07-01T18:37:46.868160,14.11578614,.00118043,19.9733,331.1680,4.9086,23.3871,0,U,37841,999,75988,.64524419E-4,.384E-5,0
PLEIADES 1A,2011-076F,2026-07-02T07:00:41.399712,14.58540226,.00017599,98.1978,258.1919,87.4139,2.7628,0,U,38012,999,77419,.77462037E-4,.314E-5,0
ZIYUAN 1-02C (ZY 1-02C),2011-079A,2026-07-02T07:36:02.776320,14.38226627,.00051195,98.4069,250.3088,261.4880,187.1315,0,U,38038,999,76138,.14532634E-3,.398E-5,0
ARIRANG-3 (KOMPSAT-3),2012-025B,2026-07-02T07:01:26.349312,14.62219993,.00067624,98.1178,140.4925,71.7719,288.4218,0,U,38338,999,75355,.11758667E-3,.546E-5,0
EXACTVIEW-1 (ADS-1B),2012-039C,2026-07-02T06:24:24.116256,14.24989137,.00117937,98.9795,300.9989,125.4369,234.7913,0,U,38709,999,72485,.81525605E-4,.144E-5,0
SPOT 6,2012-047A,2026-07-02T06:58:01.119936,14.58531274,.00012532,98.2117,250.4225,77.8901,282.2439,0,U,38755,999,73525,.58944892E-4,.228E-5,0
PLEIADES 1B,2012-068A,2026-07-02T05:46:11.206272,14.58569134,.00017003,98.1949,258.0848,84.9660,275.1734,0,U,39019,999,72304,.40086011E-4,.141E-5,0
GOKTURK 2,2012-073A,2026-07-02T06:30:00.444672,14.75557550,.00010664,97.6808,19.9453,61.3451,298.7866,0,U,39030,999,72673,.65500355E-4,.399E-5,0
LANDSAT 8,2013-008A,2026-07-02T06:28:04.631520,14.57104791,.00013547,98.2297,253.2253,93.4323,266.7030,0,U,39084,999,70009,.94891671E-4,.382E-5,0
SARAL,2013-009A,2026-07-02T06:20:08.303136,14.32859541,.00009851,98.5558,9.6402,201.5880,158.5262,0,U,39086,999,69776,.47537948E-4,.86E-6,0
GAOFEN-1,2013-018A,2026-07-02T07:27:18.662688,14.76507389,.0015998,97.9095,255.0713,213.6744,146.3450,0,U,39150,999,71047,.14989594E-3,.995E-5,0
VNREDSAT 1,2013-021B,2026-07-02T07:42:50.537664,14.64872030,.00016941,97.9072,236.1565,81.7976,278.3420,0,U,39160,999,70250,.97191786E-4,.474E-5,0
ARIRANG-5 (KOMPSAT-5),2013-042A,2026-07-02T06:19:30.203328,15.04540638,.00051429,97.6197,9.7505,86.5291,273.6524,0,U,39227,999,70612,.1536096E-3,.2092E-4,0
SKYSAT-A,2013-066C,2026-07-01T20:57:27.732096,15.13054240,.00197054,97.3804,231.8027,262.5520,97.3473,0,U,39418,999,69070,.20304589E-3,.3541E-4,0
DUBAISAT-2,2013-066D,2026-07-02T05:50:46.034304,15.10297986,.00106926,97.4570,172.9946,351.4445,8.6601,0,U,39419,999,68866,.37554031E-3,.6098E-4,0
GPM-CORE,2014-009C,2026-07-02T07:03:37.831104,15.44885986,.00112647,64.9712,257.5214,257.7133,102.2747,0,U,39574,999,70014,.25143324E-3,.11665E-3,0
SENTINEL-1A,2014-016A,2026-07-02T07:35:07.144224,14.59199878,.00013896,98.1773,190.6279,84.6032,275.5326,0,U,39634,999,65222,.30420711E-4,.98E-6,0
KAZEOSAT 1,2014-024A,2026-07-02T06:52:14.757024,14.42085848,.00011659,98.3206,255.3581,78.8165,281.3156,0,U,39731,999,64073,.69728088E-4,.186E-5,0
