DUBAISAT-1              
1 35682U 09041B   26183.28329888  .00001022  00000+0  15887-3 0  9992
2 35682  98.0071 316.3770 0010910  29.5315 330.6509 14.75149207907321
OCEANSAT-2              
1 35931U 09051A   26183.28308536 -.00000221  00000+0 -12508-3 0  9996
2 35931  98.2318 168.6278 0016444 191.0858 168.9949 13.99659374881440
WORLDVIEW-2 (WV-2)      
1 35946U 09055A   26183.26395372  .00000156  00000+0  66007-4 0  9997
2 35946  98.4762 256.5075 0004665 162.5347 197.6001 14.37903885877817
SMOS                    
1 36036U 09059A   26183.13104582  .00000258  00000+0  96222-4 0  9994
2 36036  98.4425  10.2470 0001310  87.5229 272.6109 14.39780683875606
YAOGAN-7                
1 36110U 09069A   26183.25338153  .00000570  00000+0  85964-4 0  9992
2 36110  98.0052  69.0262 0024473 354.1291   5.9629 14.78025286891852
TANDEM-X                
1 36605U 10030A   26182.61687690  .00000599  00000+0  31706-4 0  9999
2 36605  97.4457 190.1177 0001792  96.8129 263.3310 15.19152803888836
CARTOSAT-2B             
1 36795U 10035A   26183.29473807  .00000619  00000+0  91662-4 0  9992
2 36795  97.9945 233.7480 0012019 136.4844 223.7317 14.78602414862081
YAOGAN-10               
1 36834U 10038A   26183.31769074  .00002368  00000+0  28123-3 0  9990
2 36834  97.8966 206.6013 0001749  86.7145  36.4579 14.85396895859454
COSMO-SKYMED 4          
1 37216U 10060A   26183.29606694  .00000187  00000+0  30008-4 0  9998
2 37216  97.8884   6.6763 0001484  84.3354 275.8028 14.82157134846801
RESOURCESAT-2           
1 37387U 11015A   26183.29170921  .00000116  00000+0  72862-4 0  9993
2 37387  98.7638 250.6288 0010814 208.3539 151.7051 14.21603574788327
HAIYANG-2A              
1 37781U 11043A   26182.23608220  .00000161  00000+0  21773-3 0  9997
2 37781  99.3390 184.5963 0004752  61.7209 298.4419 13.73990655748587
RASAT                   
1 37791U 11044D   26183.30419975  .00000579  00000+0  10887-3 0  9992
2 37791  98.0586 274.4704 0021350 141.3885 263.3764 14.68181168795404
SRMSAT                  
1 37841U 11058D   26182.77623690  .00000384  00000+0  64524-4 0  9996
2 37841  19.9733 331.1680 0011804   4.9086  23.3871 14.11578614759889
PLEIADES 1A             
1 38012U 11076F   26183.29214583  .00000314  00000+0  77462-4 0  9990
2 38012  98.1978 258.1919 0001759  87.4139   2.7628 14.58540226774197
ZIYUAN 1-02C (ZY 1-02C) 
1 38038U 11079A   26183.31669880  .00000398  00000+0  14533-3 0  9999
2 38038  98.4069 250.3088 0005119 261.4880 187.1315 14.38226627761383
ARIRANG-3 (KOMPSAT-3)   
1 38338U 12025B   26183.29266608  .00000546  00000+0  11759-3 0  9994
2 38338  98.1178 140.4925 0006762  71.7719 288.4218 14.62219993753553
EXACTVIEW-1 (ADS-1B)    
1 38709U 12039C   26183.26694579  .00000144  00000+0  81526-4 0  9994
2 38709  98.9795 300.9989 0011793 125.4369 234.7913 14.24989137724858
SPOT 6                  
1 38755U 12047A   26183.29029074  .00000228  00000+0  58945-4 0  9991
2 38755  98.2117 250.4225 0001253  77.8901 282.2439 14.58531274735253
PLEIADES 1B             
1 39019U 12068A   26183.24040748  .00000141  00000+0  40086-4 0  9995
2 39019  98.1949 258.0848 0001700  84.9660 275.1734 14.58569134723041
GOKTURK 2               
1 39030U 12073A   26183.27083848  .00000399  00000+0  65500-4 0  9998
2 39030  97.6808  19.9453 0001066  61.3451 298.7866 14.75557550726734
LANDSAT 8               
1 39084U 13008A   26183.26949805  .00000382  00000+0  94892-4 0  9997
2 39084  98.2297 253.2253 0001354  93.4323 266.7030 14.57104791700091
SARAL                   
1 39086U 13009A   26183.26398499  .00000086  00000+0  47538-4 0  9993
2 39086  98.5558   9.6402 0000985 201.5880 158.5262 14.32859541697761
GAOFEN-1                
1 39150U 13018A   26183.31063267  .00000995  00000+0  14990-3 0  9997
2 39150  97.9095 255.0713 0015998 213.6744 146.3450 14.76507389710473
VNREDSAT 1              
1 39160U 13021B   26183.32141826  .00000474  00000+0  97192-4 0  9999
2 39160  97.9072 236.1565 0001694  81.7976 278.3420 14.64872030702506
ARIRANG-5 (KOMPSAT-5)   
1 39227U 13042A   26183.26354402  .00002092  00000+0  15361-3 0  9990
2 39227  97.6197   9.7505 0005142  86.5291 273.6524 15.04540638706124
SKYSAT-A                
1 39418U 13066C   26182.87323764  .00003541  00000+0  20305-3 0  9995
2 39418  97.3804 231.8027 0019705 262.5520  97.3473 15.13054240690705
DUBAISAT-2              
1 39419U 13066D   26183.24358836  .00006098  00000+0  37554-3 0  9990
2 39419  97.4570 172.9946 0010692 351.4445   8.6601 15.10297986688665
GPM-CORE                
1 39574U 14009C   26183.29418786  .00011665  00000+0  25143-3 0  9993
2 39574  64.9712 257.5214 0011264 257.7133 102.2747 15.44885986700140
SENTINEL-1A             
1 39634U 14016A   26183.31605491  .00000098  00000+0  30421-4 0  9996
2 39634  98.1773 190.6279 0001389  84.6032 275.5326 14.59199878652228
KAZEOSAT 1              
1 39731U 14024A   26183.28628191  .00000186  00000+0  69728-4 0  9991
2 39731  98.3206 255.3581 0001165  78.8165 281.3156 14.42085848640730
